{"type": "FeatureCollection", "features": [{"type": "Feature", "geometry": {"type": "Polygon", "coordinates": [[[144.927186, -37.799704], [144.927088, -37.799698], [144.92703, -37.799691], [144.926614, -37.799631], [144.916942, -37.798128], [144.91688, -37.798103], [144.91365, -37.794978], [144.906818, -37.785152], [144.936794, -37.788945], [144.937597, -37.789157], [144.935868, -37.799009], [144.935772, -37.799493], [144.927186, -37.799704]]]}, "properties": {"precinct": "Kensington", "cliff_rank": 1.0, "cliff_index": 79.5, "tree_count": 7555, "area_ha": 286.53, "near_term_trees": 639, "near_term_share": 0.0846, "near_term_cost_aud": 939000.0, "near_term_cost_per_ha": 3277.14, "avg_hvi_score": 1.85, "low_confidence": false, "group_label": "Higher heat risk and higher renewal cost", "fill": "#eb6834"}}, {"type": "Feature", "geometry": {"type": "Polygon", "coordinates": [[[144.972793, -37.807946], [144.963894, -37.806764], [144.960271, -37.806247], [144.95997, -37.806125], [144.957935, -37.801747], [144.961555, -37.778676], [144.974913, -37.792963], [144.975474, -37.793611], [144.975415, -37.79404], [144.973798, -37.803615], [144.973615, -37.804609], [144.973565, -37.804865], [144.973143, -37.807037], [144.972963, -37.807571], [144.972793, -37.807946]]]}, "properties": {"precinct": "Carlton", "cliff_rank": 2.0, "cliff_index": 74.4, "tree_count": 4368, "area_ha": 323.94, "near_term_trees": 285, "near_term_share": 0.0652, "near_term_cost_aud": 652600.0, "near_term_cost_per_ha": 2014.57, "avg_hvi_score": 2.71, "low_confidence": false, "group_label": "Higher heat risk and higher renewal cost", "fill": "#eb6834"}}, {"type": "Feature", "geometry": {"type": "Polygon", "coordinates": [[[144.96613, -37.793155], [144.965996, -37.793151], [144.965878, -37.793143], [144.965761, -37.793134], [144.965639, -37.79312], [144.965525, -37.793105], [144.96541, -37.793086], [144.965192, -37.793037], [144.965082, -37.793011], [144.96497, -37.792981], [144.964861, -37.792946], [144.964654, -37.792874], [144.960974, -37.791584], [144.960787, -37.791501], [144.960698, -37.791452], [144.960593, -37.791388], [144.96042, -37.791266], [144.960335, -37.791203], [144.960185, -37.791072], [144.96011, -37.791004], [144.960031, -37.790929], [144.959964, -37.790864], [144.959895, -37.790785], [144.959835, -37.790714], [144.958919, -37.789487], [144.958942, -37.78929], [144.959014, -37.788686], [144.959259, -37.786689], [144.959822, -37.782127], [144.959997, -37.780723], [144.960171, -37.779343], [144.960309, -37.778246], [144.960559, -37.7781], [144.960809, -37.778126], [144.961011, -37.778155], [144.961723, -37.77853], [144.961909, -37.778648], [144.962088, -37.778785], [144.969369, -37.785728], [144.974729, -37.79294], [144.966219, -37.793156], [144.96613, -37.793155]]]}, "properties": {"precinct": "Carlton North", "cliff_rank": 3.0, "cliff_index": 69.2, "tree_count": 2323, "area_ha": 126.82, "near_term_trees": 233, "near_term_share": 0.1003, "near_term_cost_aud": 585400.0, "near_term_cost_per_ha": 4615.99, "avg_hvi_score": 1.01, "low_confidence": false, "group_label": "Higher renewal cost only", "fill": "#2a78d6"}}, {"type": "Feature", "geometry": {"type": "Polygon", "coordinates": [[[144.957575, -37.805947], [144.957358, -37.805927], [144.945927, -37.804784], [144.942833, -37.804436], [144.942369, -37.804384], [144.937694, -37.799735], [144.937294, -37.799271], [144.93707, -37.798526], [144.937009, -37.79825], [144.936332, -37.795066], [144.937614, -37.789152], [144.940104, -37.788285], [144.940525, -37.788372], [144.962872, -37.802951], [144.958292, -37.805937], [144.957575, -37.805947]]]}, "properties": {"precinct": "North Melbourne", "cliff_rank": 4.0, "cliff_index": 61.5, "tree_count": 4715, "area_ha": 244.69, "near_term_trees": 246, "near_term_share": 0.0522, "near_term_cost_aud": 429400.0, "near_term_cost_per_ha": 1754.87, "avg_hvi_score": 2.7, "low_confidence": false, "group_label": "Higher heat risk and higher renewal cost", "fill": "#eb6834"}}, {"type": "Feature", "geometry": {"type": "Polygon", "coordinates": [[[144.984664, -37.845523], [144.980529, -37.844923], [144.980332, -37.844889], [144.972742, -37.832044], [144.972143, -37.830326], [144.970112, -37.820913], [144.97221, -37.819833], [144.973649, -37.820214], [144.986546, -37.828865], [144.987625, -37.830042], [144.987687, -37.830874], [144.987709, -37.832077], [144.987368, -37.833879], [144.985199, -37.844392], [144.984979, -37.845434], [144.984664, -37.845523]]]}, "properties": {"precinct": "South Yarra", "cliff_rank": 5.0, "cliff_index": 56.4, "tree_count": 2631, "area_ha": 250.58, "near_term_trees": 228, "near_term_share": 0.0867, "near_term_cost_aud": 493400.0, "near_term_cost_per_ha": 1969.03, "avg_hvi_score": 1.01, "low_confidence": false, "group_label": "Higher renewal cost only", "fill": "#2a78d6"}}, {"type": "Feature", "geometry": {"type": "Polygon", "coordinates": [[[144.96358, -37.800285], [144.962105, -37.800165], [144.959548, -37.799914], [144.959256, -37.799881], [144.959072, -37.799858], [144.955184, -37.799367], [144.954747, -37.799259], [144.954652, -37.799198], [144.954374, -37.798987], [144.948292, -37.794144], [144.943944, -37.790675], [144.942798, -37.789752], [144.941519, -37.788556], [144.941351, -37.788375], [144.940928, -37.78724], [144.938328, -37.777431], [144.938312, -37.777362], [144.938319, -37.777258], [144.938341, -37.777192], [144.939151, -37.775518], [144.939219, -37.775511], [144.939512, -37.775546], [144.942723, -37.775932], [144.95946, -37.777959], [144.959595, -37.777976], [144.960072, -37.778342], [144.96497, -37.793261], [144.965033, -37.793845], [144.965033, -37.79401], [144.963908, -37.800035], [144.963886, -37.800124], [144.96358, -37.800285]]]}, "properties": {"precinct": "Parkville", "cliff_rank": 6.0, "cliff_index": 56.4, "tree_count": 28567, "area_ha": 428.57, "near_term_trees": 1712, "near_term_share": 0.0599, "near_term_cost_aud": 1943000.0, "near_term_cost_per_ha": 4533.68, "avg_hvi_score": 1.23, "low_confidence": false, "group_label": "Higher renewal cost only", "fill": "#2a78d6"}}, {"type": "Feature", "geometry": {"type": "Polygon", "coordinates": [[[144.944884, -37.825272], [144.940101, -37.825189], [144.920744, -37.820729], [144.935248, -37.810042], [144.935295, -37.810042], [144.935313, -37.810043], [144.935646, -37.810075], [144.947946, -37.811413], [144.970736, -37.814155], [144.955536, -37.822439], [144.947298, -37.825164], [144.94723, -37.82517], [144.945954, -37.82524], [144.944884, -37.825272]]]}, "properties": {"precinct": "Docklands", "cliff_rank": 7.0, "cliff_index": 56.4, "tree_count": 5816, "area_ha": 439.32, "near_term_trees": 452, "near_term_share": 0.0777, "near_term_cost_aud": 511800.0, "near_term_cost_per_ha": 1164.98, "avg_hvi_score": 1.75, "low_confidence": false, "group_label": "Higher heat risk only", "fill": "#1baf7a"}}, {"type": "Feature", "geometry": {"type": "Polygon", "coordinates": [[[144.986675, -37.827789], [144.980368, -37.826927], [144.979219, -37.826169], [144.979125, -37.826088], [144.979036, -37.826009], [144.969286, -37.817046], [144.971517, -37.807979], [144.971621, -37.807764], [144.990978, -37.809891], [144.991056, -37.810423], [144.991021, -37.811712], [144.989071, -37.822948], [144.986675, -37.827789]]]}, "properties": {"precinct": "East Melbourne", "cliff_rank": 8.0, "cliff_index": 53.8, "tree_count": 4506, "area_ha": 305.19, "near_term_trees": 333, "near_term_share": 0.0739, "near_term_cost_aud": 837000.0, "near_term_cost_per_ha": 2742.55, "avg_hvi_score": 1.17, "low_confidence": false, "group_label": "Higher renewal cost only", "fill": "#2a78d6"}}, {"type": "Feature", "geometry": {"type": "Polygon", "coordinates": [[[144.983702, -37.850518], [144.983408, -37.850485], [144.982538, -37.850376], [144.98149, -37.85024], [144.980856, -37.849983], [144.980654, -37.849848], [144.95566, -37.822025], [144.955612, -37.821924], [144.952973, -37.816178], [144.95232, -37.814755], [144.952176, -37.814439], [144.951719, -37.813435], [144.955335, -37.799743], [144.955769, -37.799634], [144.955972, -37.799643], [144.956861, -37.799722], [144.958103, -37.799858], [144.958474, -37.7999], [144.958598, -37.799914], [144.971318, -37.807708], [144.971342, -37.80773], [144.988399, -37.823101], [144.988486, -37.825598], [144.988184, -37.827578], [144.984213, -37.850058], [144.98381, -37.850518], [144.983702, -37.850518]]]}, "properties": {"precinct": "Melbourne", "cliff_rank": 9.0, "cliff_index": 38.5, "tree_count": 9063, "area_ha": 950.43, "near_term_trees": 427, "near_term_share": 0.0471, "near_term_cost_aud": 894600.0, "near_term_cost_per_ha": 941.26, "avg_hvi_score": 1.49, "low_confidence": false, "group_label": "Lower on both", "fill": "#dcdad3"}}, {"type": "Feature", "geometry": {"type": "Polygon", "coordinates": [[[144.915094, -37.838089], [144.90045, -37.830205], [144.90037, -37.830073], [144.900389, -37.830035], [144.900475, -37.829866], [144.900586, -37.82971], [144.900688, -37.829567], [144.900815, -37.829389], [144.900855, -37.829336], [144.901788, -37.828166], [144.902882, -37.826805], [144.902944, -37.82673], [144.902982, -37.826695], [144.90309, -37.826599], [144.903758, -37.826036], [144.903798, -37.826006], [144.903846, -37.825975], [144.904038, -37.82585], [144.904262, -37.825713], [144.906572, -37.824402], [144.908382, -37.823391], [144.90842, -37.82337], [144.908606, -37.823274], [144.908663, -37.823248], [144.908712, -37.82323], [144.90887, -37.82318], [144.911452, -37.822373], [144.9135, -37.821777], [144.914456, -37.8215], [144.914601, -37.821478], [144.917378, -37.821074], [144.919785, -37.820731], [144.919806, -37.820729], [144.9199, -37.820724], [144.919935, -37.820723], [144.920091, -37.820717], [144.920135, -37.820717], [144.923703, -37.820781], [144.927032, -37.821021], [144.927172, -37.821034], [144.927605, -37.821078], [144.928284, -37.821151], [144.928413, -37.821167], [144.928554, -37.821187], [144.93278, -37.822074], [144.935995, -37.822835], [144.936418, -37.822938], [144.93799, -37.82391], [144.938371, -37.824243], [144.915094, -37.838089]]]}, "properties": {"precinct": "Port Melbourne", "cliff_rank": 10.0, "cliff_index": 35.9, "tree_count": 2623, "area_ha": 360.09, "near_term_trees": 66, "near_term_share": 0.0252, "near_term_cost_aud": 70200.0, "near_term_cost_per_ha": 194.95, "avg_hvi_score": 2.0, "low_confidence": false, "group_label": "Higher heat risk only", "fill": "#1baf7a"}}, {"type": "Feature", "geometry": {"type": "Polygon", "coordinates": [[[144.913138, -37.794773], [144.903253, -37.789532], [144.903246, -37.789521], [144.903236, -37.789498], [144.907787, -37.783193], [144.907901, -37.783042], [144.908034, -37.782874], [144.908114, -37.782781], [144.908592, -37.782407], [144.909144, -37.782065], [144.91339, -37.779582], [144.913689, -37.779623], [144.913745, -37.779677], [144.913806, -37.779741], [144.914388, -37.780349], [144.915288, -37.781292], [144.922472, -37.788817], [144.92251, -37.788857], [144.922553, -37.788906], [144.922579, -37.788964], [144.922586, -37.789042], [144.922561, -37.789147], [144.922533, -37.789204], [144.9225, -37.789237], [144.921885, -37.789749], [144.921462, -37.790015], [144.917559, -37.792452], [144.915941, -37.79346], [144.914207, -37.794526], [144.914, -37.794618], [144.913138, -37.794773]]]}, "properties": {"precinct": "Flemington", "cliff_rank": 11.0, "cliff_index": 33.3, "tree_count": 510, "area_ha": 158.48, "near_term_trees": 40, "near_term_share": 0.0784, "near_term_cost_aud": 44400.0, "near_term_cost_per_ha": 280.16, "avg_hvi_score": 1.0, "low_confidence": false, "group_label": "Lower on both", "fill": "#dcdad3"}}, {"type": "Feature", "geometry": {"type": "Polygon", "coordinates": [[[144.966271, -37.831263], [144.939957, -37.825063], [144.940413, -37.823936], [144.967524, -37.819705], [144.967616, -37.819699], [144.968001, -37.819678], [144.96849, -37.820035], [144.970409, -37.824232], [144.970487, -37.824408], [144.970624, -37.824719], [144.970891, -37.825333], [144.970977, -37.825585], [144.971044, -37.825805], [144.971173, -37.826346], [144.971208, -37.826527], [144.971274, -37.82705], [144.971281, -37.827201], [144.971278, -37.827379], [144.97127, -37.827553], [144.971165, -37.829679], [144.970891, -37.82991], [144.969416, -37.830441], [144.966379, -37.831236], [144.966271, -37.831263]]]}, "properties": {"precinct": "Southbank", "cliff_rank": 11.0, "cliff_index": 33.3, "tree_count": 2338, "area_ha": 202.92, "near_term_trees": 44, "near_term_share": 0.0188, "near_term_cost_aud": 52600.0, "near_term_cost_per_ha": 259.22, "avg_hvi_score": 1.99, "low_confidence": false, "group_label": "Higher heat risk only", "fill": "#1baf7a"}}, {"type": "Feature", "geometry": {"type": "Polygon", "coordinates": [[[144.951649, -37.812996], [144.943526, -37.812593], [144.907881, -37.806742], [144.908786, -37.804107], [144.909041, -37.803558], [144.909198, -37.803256], [144.909317, -37.803034], [144.909627, -37.802483], [144.909714, -37.802331], [144.910387, -37.801249], [144.910694, -37.800823], [144.910875, -37.800652], [144.910933, -37.800598], [144.910995, -37.800545], [144.91179, -37.800063], [144.911806, -37.800054], [144.912035, -37.799955], [144.912157, -37.799905], [144.916838, -37.798588], [144.932358, -37.801298], [144.955128, -37.805969], [144.955887, -37.806196], [144.956199, -37.811576], [144.955998, -37.811727], [144.955841, -37.811777], [144.953091, -37.812612], [144.951649, -37.812996]]]}, "properties": {"precinct": "West Melbourne", "cliff_rank": 13.0, "cliff_index": 30.8, "tree_count": 6756, "area_ha": 400.0, "near_term_trees": 231, "near_term_share": 0.0342, "near_term_cost_aud": 334000.0, "near_term_cost_per_ha": 835.0, "avg_hvi_score": 1.44, "low_confidence": false, "group_label": "Lower on both", "fill": "#dcdad3"}}, {"type": "Feature", "geometry": {"type": "Polygon", "coordinates": [[[144.955162, -37.811941], [144.950808, -37.811813], [144.908229, -37.805997], [144.908885, -37.80392], [144.909293, -37.803079], [144.909798, -37.802226], [144.9117, -37.800084], [144.911748, -37.800062], [144.912102, -37.799912], [144.940958, -37.789375], [144.945381, -37.792083], [144.955683, -37.802329], [144.956059, -37.803652], [144.955244, -37.811917], [144.955162, -37.811941]]]}, "properties": {"precinct": "North And West Melbourne", "cliff_rank": 14.0, "cliff_index": 20.5, "tree_count": 113, "area_ha": 638.56, "near_term_trees": 0, "near_term_share": 0.0, "near_term_cost_aud": 0.0, "near_term_cost_per_ha": 0.0, "avg_hvi_score": 1.84, "low_confidence": false, "group_label": "Higher heat risk only", "fill": "#1baf7a"}}, {"type": "Feature", "geometry": {"type": "Polygon", "coordinates": [[[144.95872, -37.819869], [144.955031, -37.817744], [144.952654, -37.81552], [144.952327, -37.813021], [144.956386, -37.810462], [144.962435, -37.806806], [144.966691, -37.807586], [144.972268, -37.813711], [144.95872, -37.819869]]]}, "properties": {"precinct": "Central City", "cliff_rank": null, "cliff_index": null, "tree_count": 26, "area_ha": 147.73, "near_term_trees": 0, "near_term_share": 0.0, "near_term_cost_aud": 0.0, "near_term_cost_per_ha": 0.0, "avg_hvi_score": 2.46, "low_confidence": true, "group_label": "Too small to rank", "fill": "#fcfcfb"}}, {"type": "Feature", "geometry": {"type": "Polygon", "coordinates": [[[144.913147, -37.834603], [144.901063, -37.829188], [144.901513, -37.828538], [144.902017, -37.827896], [144.902829, -37.826868], [144.903019, -37.826664], [144.9036, -37.82617], [144.903815, -37.825994], [144.903897, -37.825936], [144.903996, -37.825872], [144.90414, -37.825788], [144.904464, -37.825602], [144.905752, -37.82487], [144.908295, -37.823717], [144.9154, -37.821384], [144.917124, -37.821142], [144.919359, -37.820829], [144.926054, -37.823942], [144.913147, -37.834603]]]}, "properties": {"precinct": "Fishermans Bend", "cliff_rank": null, "cliff_index": null, "tree_count": 61, "area_ha": 178.92, "near_term_trees": 0, "near_term_share": 0.0, "near_term_cost_aud": 0.0, "near_term_cost_per_ha": 0.0, "avg_hvi_score": 2.0, "low_confidence": true, "group_label": "Too small to rank", "fill": "#fcfcfb"}}, {"type": "Feature", "geometry": {"type": "Polygon", "coordinates": [[[144.969227, -37.785551], [144.968093, -37.785443], [144.965446, -37.785177], [144.963635, -37.784991], [144.963629, -37.784793], [144.963708, -37.784272], [144.963972, -37.782632], [144.969227, -37.785551]]]}, "properties": {"precinct": "Princes Hill", "cliff_rank": null, "cliff_index": null, "tree_count": 65, "area_ha": 6.6, "near_term_trees": 9, "near_term_share": 0.1385, "near_term_cost_aud": 25200.0, "near_term_cost_per_ha": 3818.18, "avg_hvi_score": 1.98, "low_confidence": true, "group_label": "Too small to rank", "fill": "#fcfcfb"}}]}